NORAD_CAT_ID,OBJECT_NAME,OBJECT_TYPE,EPOCH,MEAN_MOTION,ECCENTRICITY,INCLINATION,RA_OF_ASC_NODE,ARG_OF_PERICENTER,MEAN_ANOMALY,BSTAR,MEAN_MOTION_DOT,MEAN_MOTION_DDOT,TLE_LINE0,TLE_LINE1,TLE_LINE2,SEMIMAJOR_AXIS,PERIOD,APOGEE,PERIGEE,DECAYED
55781.0,STARLINK-5820,PAYLOAD,2024-04-16 14:30:16,14.9914915,0.0002609,70.0013,169.5542,269.214,90.8721,5.2554e-05,5.47e-06,0.0,0 STARLINK-5820,1 55781U 23028AS  24107.60435941  .00000547  00000-0  52554-4 0  9998,2 55781  70.0013 169.5542 0002609 269.2140  90.8721 14.99149150 62864,6947.661,96.054,571.339,567.713,0.0
55781.0,STARLINK-5820,PAYLOAD,2024-04-17 04:55:02,14.9913297,0.00031,70.0001,168.0374,267.8642,92.2162,-9.5989e-05,-1.263e-05,0.0,0 STARLINK-5820,1 55781U 23028AS  24108.20488811 -.00001263  00000-0 -95989-4 0  9996,2 55781  70.0001 168.0374 0003100 267.8642  92.2162 14.99132970 62953,6947.711,96.056,571.73,567.422,0.0
55781.0,STARLINK-5820,PAYLOAD,2024-04-17 14:31:31,14.99136863,0.0002965,70.0004,167.0275,263.563,96.5192,-4.2401e-05,-6.1e-06,0.0,0 STARLINK-5820,1 55781U 23028AS  24108.60522921 -.00000610  00000-0 -42401-4 0  9997,2 55781  70.0004 167.0275 0002965 263.5630  96.5192 14.99136863 63016,6947.699,96.055,571.624,567.504,0.0
55781.0,STARLINK-5820,PAYLOAD,2024-04-17 20:55:51,14.99143078,0.0002797,70.0011,166.3535,270.492,89.5919,-0.00029642,-3.704e-05,0.0,0 STARLINK-5820,1 55781U 23028AS  24108.87212938 -.00003704  00000-0 -29642-3 0  9998,2 55781  70.0011 166.3535 0002797 270.4920  89.5919 14.99143078 63056,6947.68,96.055,571.488,567.601,0.0
55781.0,STARLINK-5820,PAYLOAD,2024-04-18 12:56:41,14.99131932,0.0003026,69.9999,164.6687,270.274,89.8073,3.6392e-06,-4.9e-07,0.0,0 STARLINK-5820,1 55781U 23028AS  24109.53937276 -.00000049  00000-0  36392-5 0  9991,2 55781  69.9999 164.6687 0003026 270.2740  89.8073 14.99131932 63152,6947.714,96.056,571.681,567.477,0.0
55781.0,STARLINK-5820,PAYLOAD,2024-04-19 04:57:30,14.99133229,0.0002984,70.0001,162.9856,264.0415,96.0404,0.00025447,3.008e-05,0.0,0 STARLINK-5820,1 55781U 23028AS  24110.20660623  .00003008  00000-0  25447-3 0  9990,2 55781  70.0001 162.9856 0002984 264.0415  96.0404 14.99133229 63250,6947.71,96.056,571.648,567.502,0.0
55781.0,STARLINK-5820,PAYLOAD,2024-04-19 12:57:55,14.99140955,0.0002921,70.0001,162.1432,262.9045,97.1782,0.00031569,3.755e-05,0.0,0 STARLINK-5820,1 55781U 23028AS  24110.54022096  .00003755  00000-0  31569-3 0  9994,2 55781  70.0001 162.1432 0002921 262.9045  97.1782 14.99140955 63300,6947.686,96.055,571.581,567.522,0.0
55781.0,STARLINK-5820,PAYLOAD,2024-04-20 12:59:07,14.99161875,0.0002947,69.9998,159.6162,265.0228,95.0595,0.00036487,4.357e-05,0.0,0 STARLINK-5820,1 55781U 23028AS  24111.54106311  .00004357  00000-0  36487-3 0  9991,2 55781  69.9998 159.6162 0002947 265.0228  95.0595 14.99161875 63457,6947.622,96.054,571.534,567.439,0.0
55781.0,STARLINK-5820,PAYLOAD,2024-04-21 05:00:01,14.99120636,0.0003152,70.0003,157.9342,271.5162,88.5637,-0.00028665,-3.583e-05,0.0,0 STARLINK-5820,1 55781U 23028AS  24112.20834511 -.00003583  00000-0 -28665-3 0  9996,2 55781  70.0003 157.9342 0003152 271.5162  88.5637 14.99120636 63551,6947.749,96.056,571.804,567.424,0.0
55781.0,STARLINK-5820,PAYLOAD,2024-04-21 13:00:26,14.99117571,0.0003004,69.9996,157.0893,263.1319,96.9499,-0.00034149,-4.25e-05,0.0,0 STARLINK-5820,1 55781U 23028AS  24112.54197020 -.00004250  00000-0 -34149-3 0  9996,2 55781  69.9996 157.0893 0003004 263.1319  96.9499 14.99117571 63607,6947.758,96.057,571.711,567.536,0.0
55781.0,STARLINK-5820,PAYLOAD,2024-04-22 05:01:18,14.99086581,0.000373,70.0002,155.4055,277.934,82.1396,-0.00067375,-8.283e-05,0.0,0 STARLINK-5820,1 55781U 23028AS  24113.20924545 -.00008283  00000-0 -67375-3 0  9997,2 55781  70.0002 155.4055 0003730 277.9340  82.1396 14.99086581 63703,6947.854,96.058,572.311,567.128,0.0
55781.0,STARLINK-5820,PAYLOAD,2024-04-22 09:49:31,14.99121957,0.0003173,70.0013,154.9025,218.6975,141.3957,-0.00025345,-3.179e-05,0.0,0 STARLINK-5820,1 55781U 23028AS  24113.40938826 -.00003179  00000-0 -25345-3 0  9996,2 55781  70.0013 154.9025 0003173 218.6975 141.3957 14.99121957 63734,6947.745,96.056,571.814,567.405,0.0
55781.0,STARLINK-5820,PAYLOAD,2024-04-22 13:01:39,14.99140672,0.0002493,70.0005,154.5639,273.1016,86.9858,-5.1114e-05,-7.16e-06,0.0,0 STARLINK-5820,1 55781U 23028AS  24113.54282368 -.00000716  00000-0 -51114-4 0  9992,2 55781  70.0005 154.5639 0002493 273.1016  86.9858 14.99140672 63759,6947.687,96.055,571.284,567.82,0.0
55781.0,STARLINK-5820,PAYLOAD,2024-04-23 11:26:48,14.99141964,0.0003152,69.9992,152.2031,264.8872,95.1927,0.00063957,7.708e-05,0.0,0 STARLINK-5820,1 55781U 23028AS  24114.47695197  .00007708  00000-0  63957-3 0  9996,2 55781  69.9992 152.2031 0003152 264.8872  95.1927 14.99141964 63891,6947.683,96.055,571.738,567.358,0.0
55781.0,STARLINK-5820,PAYLOAD,2024-04-24 03:27:38,14.99142266,0.0002906,70.0009,150.5198,245.0455,115.0403,0.0010017,0.00012134,0.0,0 STARLINK-5820,1 55781U 23028AS  24115.14419960  .00012134  00000-0  10017-2 0  9990,2 55781  70.0009 150.5198 0002906 245.0455 115.0403 14.99142266 63990,6947.682,96.055,571.566,567.528,0.0
55781.0,STARLINK-5820,PAYLOAD,2024-04-24 11:28:03,14.99128431,0.0002988,69.9999,149.6777,243.3528,116.7326,0.00077118,9.313e-05,0.0,0 STARLINK-5820,1 55781U 23028AS  24115.47781621  .00009313  00000-0  77118-3 0  9993,2 55781  69.9999 149.6777 0002988 243.3528 116.7326 14.99128431 64046,6947.725,96.056,571.666,567.514,0.0
55781.0,STARLINK-5820,PAYLOAD,2024-04-25 05:04:56,14.99158227,0.0003408,69.9991,147.8239,269.9489,90.128,-5.1441e-05,-7.21e-06,0.0,0 STARLINK-5820,1 55781U 23028AS  24116.21176806 -.00000721  00000-0 -51441-4 0  9997,2 55781  69.9991 147.8239 0003408 269.9489  90.1280 14.99158227 64151,6947.633,96.054,571.866,567.13,0.0
55781.0,STARLINK-5820,PAYLOAD,2024-04-25 11:29:17,14.99148874,0.0001931,70.0016,147.1514,268.3826,91.7112,-3.1368e-05,-4.76e-06,0.0,0 STARLINK-5820,1 55781U 23028AS  24116.47866965 -.00000476  00000-0 -31368-4 0  9990,2 55781  70.0016 147.1514 0001931 268.3826  91.7112 14.99148874 64190,6947.662,96.055,570.868,568.185,0.0
55781.0,STARLINK-5820,PAYLOAD,2024-04-26 11:30:30,14.99148055,0.0003001,69.9994,144.6238,259.9605,100.1216,-4.3472e-05,-6.23e-06,0.0,0 STARLINK-5820,1 55781U 23028AS  24117.47951878 -.00000623  00000-0 -43472-4 0  9992,2 55781  69.9994 144.6238 0003001 259.9605 100.1216 14.99148055 64346,6947.664,96.055,571.614,567.444,0.0
55781.0,STARLINK-5820,PAYLOAD,2024-04-26 19:30:55,14.99144755,0.0002927,70.0001,143.7799,265.0075,95.0751,-1.115e-05,-2.3e-06,0.0,0 STARLINK-5820,1 55781U 23028AS  24117.81313899 -.00000230  00000-0 -11150-4 0  9997,2 55781  70.0001 143.7799 0002927 265.0075  95.0751 14.99144755 64399,6947.674,96.055,571.573,567.506,0.0
55781.0,STARLINK-5820,PAYLOAD,2024-04-27 11:31:44,14.99142605,0.0003184,69.9988,142.0962,265.7641,94.3155,5.9882e-05,6.36e-06,0.0,0 STARLINK-5820,1 55781U 23028AS  24118.48037711  .00000636  00000-0  59882-4 0  9999,2 55781  69.9988 142.0962 0003184 265.7641  94.3155 14.99142605 64499,6947.681,96.055,571.758,567.334,0.0
55781.0,STARLINK-5820,PAYLOAD,2024-04-28 11:32:58,14.99141016,0.0003184,69.9986,139.5696,268.4159,91.6636,4.131e-05,4.1e-06,0.0,0 STARLINK-5820,1 55781U 23028AS  24119.48123615  .00000410  00000-0  41310-4 0  9996,2 55781  69.9986 139.5696 0003184 268.4159  91.6636 14.99141016 64642,6947.686,96.055,571.763,567.339,0.0
55781.0,STARLINK-5820,PAYLOAD,2024-04-29 11:34:13,14.99140219,0.0003142,69.9986,137.0432,268.0077,92.0723,4.5602e-05,4.62e-06,0.0,0 STARLINK-5820,1 55781U 23028AS  24120.48209565  .00000462  00000-0  45602-4 0  9992,2 55781  69.9986 137.0432 0003142 268.0077  92.0723 14.99140219 64794,6947.688,96.055,571.736,567.371,0.0
55781.0,STARLINK-5820,PAYLOAD,2024-04-29 17:58:32,14.99139914,0.0003138,69.9986,136.3694,268.3958,91.6842,5.0604e-05,5.23e-06,0.0,0 STARLINK-5820,1 55781U 23028AS  24120.74899141  .00000523  00000-0  50604-4 0  9992,2 55781  69.9986 136.3694 0003138 268.3958  91.6842 14.99139914 64834,6947.689,96.055,571.735,567.374,0.0
55781.0,STARLINK-5820,PAYLOAD,2024-04-30 09:59:22,14.9914117,0.0003157,69.9985,134.6847,269.2717,90.8081,4.0866e-05,4.04e-06,0.0,0 STARLINK-5820,1 55781U 23028AS  24121.41622996  .00000404  00000-0  40866-4 0  9996,2 55781  69.9985 134.6847 0003157 269.2717  90.8081 14.99141170 64932,6947.686,96.055,571.744,567.357,0.0
55781.0,STARLINK-5820,PAYLOAD,2024-04-30 17:59:47,14.99138906,0.0003152,69.9985,133.8423,269.2763,90.8035,2.4501e-05,2.05e-06,0.0,0 STARLINK-5820,1 55781U 23028AS  24121.74985167  .00000205  00000-0  24501-4 0  9991,2 55781  69.9985 133.8423 0003152 269.2763  90.8035 14.99138906 64986,6947.693,96.055,571.747,567.368,0.0
55781.0,STARLINK-5820,PAYLOAD,2024-05-01 06:48:27,14.99136122,0.0003096,69.9986,132.495,269.0759,91.0046,-9.7662e-06,-2.13e-06,0.0,0 STARLINK-5820,1 55781U 23028AS  24122.28364688 -.00000213  00000-0 -97662-5 0  9990,2 55781  69.9986 132.4950 0003096 269.0759  91.0046 14.99136122 65060,6947.701,96.055,571.717,567.415,0.0
55781.0,STARLINK-5820,PAYLOAD,2024-05-01 18:01:01,14.99136601,0.0003089,69.9986,131.3158,269.3106,90.7699,4.7274e-06,-3.6e-07,0.0,0 STARLINK-5820,1 55781U 23028AS  24122.75071456 -.00000036  00000-0  47274-5 0  9996,2 55781  69.9986 131.3158 0003089 269.3106  90.7699 14.99136601 65139,6947.7,96.055,571.711,567.419,0.0
55781.0,STARLINK-5820,PAYLOAD,2024-05-02 10:01:51,14.99138759,0.00031,69.9985,129.6315,269.4339,90.6466,2.1508e-05,1.68e-06,0.0,0 STARLINK-5820,1 55781U 23028AS  24123.41795293  .00000168  00000-0  21508-4 0  9998,2 55781  69.9985 129.6315 0003100 269.4339  90.6466 14.99138759 65234,6947.693,96.055,571.712,567.404,0.0
55781.0,STARLINK-5820,PAYLOAD,2024-05-02 18:02:15,14.99139653,0.0003112,69.9984,128.7889,269.4873,90.5929,4.4451e-05,4.48e-06,0.0,0 STARLINK-5820,1 55781U 23028AS  24123.75157162  .00000448  00000-0  44451-4 0  9995,2 55781  69.9984 128.7889 0003112 269.4873  90.5929 14.99139653 65287,6947.69,96.055,571.717,567.393,0.0
